{"type": "FeatureCollection", "features": [ {"type": "Feature", "properties": {"norad_id": 66757, "name": "TRANSPORTER-15CV", "group": "last-30-days", "lat": -34.4734295458794, "lon": -114.86188199092065, "alt_km": 517.1769986818581, "timestamp": "2025-12-24T16:52:40.178741+00:00", "meta": {"OBJECT_NAME": "TRANSPORTER-15CV", "OBJECT_ID": "2025-276CV", "EPOCH": "2025-12-24T06:26:36.386016", "MEAN_MOTION": 15.18091372, "ECCENTRICITY": 0.00020695, "INCLINATION": 97.4421, "RA_OF_ASC_NODE": 69.8597, "ARG_OF_PERICENTER": 155.4992, "MEAN_ANOMALY": 204.6341, "EPHEMERIS_TYPE": 0, "CLASSIFICATION_TYPE": "U", "NORAD_CAT_ID": 66757, "ELEMENT_SET_NO": 999, "REV_AT_EPOCH": 387, "BSTAR": 0.00062084031, "MEAN_MOTION_DOT": 0.00012602, "MEAN_MOTION_DDOT": 0}, "tle": {"line1": "1 66757U 25276CV  25358.26847669  .00012602  00000+0  62084-3 0  9997", "line2": "2 66757  97.4421  69.8597 0002069 155.4992 204.6341 15.18091372  3871"}}, "geometry": {"type": "Point", "coordinates": [-114.86188199092065, -34.4734295458794]}}, {"type": "Feature", "properties": {"norad_id": 66758, "name": "TRANSPORTER-15CW", "group": "last-30-days", "lat": -35.96517663433081, "lon": -115.16308386159254, "alt_km": 517.780882777538, "timestamp": "2025-12-24T16:52:40.178752+00:00", "meta": {"OBJECT_NAME": "TRANSPORTER-15CW", "OBJECT_ID": "2025-276CW", "EPOCH": "2025-12-24T06:26:12.467040", "MEAN_MOTION": 15.1809391, "ECCENTRICITY": 0.00014693, "INCLINATION": 97.4392, "RA_OF_ASC_NODE": 69.8497, "ARG_OF_PERICENTER": 137.4548, "MEAN_ANOMALY": 222.68, "EPHEMERIS_TYPE": 0, "CLASSIFICATION_TYPE": "U", "NORAD_CAT_ID": 66758, "ELEMENT_SET_NO": 999, "REV_AT_EPOCH": 387, "BSTAR": 0.00055534732, "MEAN_MOTION_DOT": 0.00011264, "MEAN_MOTION_DDOT": 0}, "tle": {"line1": "1 66758U 25276CW  25358.26819985  .00011264  00000+0  55535-3 0  9994", "line2": "2 66758  97.4392  69.8497 0001469 137.4548 222.6800 15.18093910  3878"}}, "geometry": {"type": "Point", "coordinates": [-115.16308386159254, -35.96517663433081]}}, {"type": "Feature", "properties": {"norad_id": 66759, "name": "TRANSPORTER-15CX", "group": "last-30-days", "lat": -45.72017719571631, "lon": -117.42154420832294, "alt_km": 517.9486319086818, "timestamp": "2025-12-24T16:52:40.178764+00:00", "meta": {"OBJECT_NAME": "TRANSPORTER-15CX", "OBJECT_ID": "2025-276CX", "EPOCH": "2025-12-24T03:13:50.466432", "MEAN_MOTION": 15.18234635, "ECCENTRICITY": 0.00018047, "INCLINATION": 97.4377, "RA_OF_ASC_NODE": 69.7181, "ARG_OF_PERICENTER": 137.2523, "MEAN_ANOMALY": 222.8851, "EPHEMERIS_TYPE": 0, "CLASSIFICATION_TYPE": "U", "NORAD_CAT_ID": 66759, "ELEMENT_SET_NO": 999, "REV_AT_EPOCH": 385, "BSTAR": 0.00075944991, "MEAN_MOTION_DOT": 0.000155, "MEAN_MOTION_DDOT": 0}, "tle": {"line1": "1 66759U 25276CX  25358.13461188  .00015500  00000+0  75945-3 0  9993", "line2": "2 66759  97.4377  69.7181 0001804 137.2523 222.8851 15.18234635  3852"}}, "geometry": {"type": "Point", "coordinates": [-117.42154420832294, -45.72017719571631]}}, {"type": "Feature", "properties": {"norad_id": 66760, "name": "TRANSPORTER-15CY", "group": "last-30-days", "lat": -47.55978035438468, "lon": -117.93160675082679, "alt_km": 518.6527195461167, "timestamp": "2025-12-24T16:52:40.178782+00:00", "meta": {"OBJECT_NAME": "TRANSPORTER-15CY", "OBJECT_ID": "2025-276CY", "EPOCH": "2025-12-24T06:23:08.759904", "MEAN_MOTION": 15.18204746, "ECCENTRICITY": 0.00017342, "INCLINATION": 97.4397, "RA_OF_ASC_NODE": 69.8544, "ARG_OF_PERICENTER": 112.955, "MEAN_ANOMALY": 247.1867, "EPHEMERIS_TYPE": 0, "CLASSIFICATION_TYPE": "U", "NORAD_CAT_ID": 66760, "ELEMENT_SET_NO": 999, "REV_AT_EPOCH": 387, "BSTAR": 0.00037155826, "MEAN_MOTION_DOT": 7.534e-05, "MEAN_MOTION_DDOT": 0}, "tle": {"line1": "1 66760U 25276CY  25358.26607361  .00007534  00000+0  37156-3 0  9994", "line2": "2 66760  97.4397  69.8544 0001734 112.9550 247.1867 15.18204746  3871"}}, "geometry": {"type": "Point", "coordinates": [-117.93160675082679, -47.55978035438468]}}, {"type": "Feature", "properties": {"norad_id": 66761, "name": "TRANSPORTER-15CZ", "group": "last-30-days", "lat": -62.81602161914561, "lon": -124.449398217991, "alt_km": 518.1965204034168, "timestamp": "2025-12-24T16:52:40.178793+00:00", "meta": {"OBJECT_NAME": "TRANSPORTER-15CZ", "OBJECT_ID": "2025-276CZ", "EPOCH": "2025-12-24T06:19:07.655520", "MEAN_MOTION": 15.18503145, "ECCENTRICITY": 0.00017283, "INCLINATION": 97.4396, "RA_OF_ASC_NODE": 69.8578, "ARG_OF_PERICENTER": 122.5058, "MEAN_ANOMALY": 237.6344, "EPHEMERIS_TYPE": 0, "CLASSIFICATION_TYPE": "U", "NORAD_CAT_ID": 66761, "ELEMENT_SET_NO": 999, "REV_AT_EPOCH": 387, "BSTAR": 0.00055882975, "MEAN_MOTION_DOT": 0.0001147, "MEAN_MOTION_DDOT": 0}, "tle": {"line1": "1 66761U 25276CZ  25358.26328305  .00011470  00000+0  55883-3 0  9994", "line2": "2 66761  97.4396  69.8578 0001728 122.5058 237.6344 15.18503145  3870"}}, "geometry": {"type": "Point", "coordinates": [-124.449398217991, -62.81602161914561]}}, {"type": "Feature", "properties": {"norad_id": 66762, "name": "HYDROGNSS-1", "group": "last-30-days", "lat": 29.960266268800822, "lon": -105.42532379289996, "alt_km": 512.6097244055491, "timestamp": "2025-12-24T16:52:40.178805+00:00", "meta": {"OBJECT_NAME": "HYDROGNSS-1", "OBJECT_ID": "2025-276DA", "EPOCH": "2025-12-24T03:33:29.792736", "MEAN_MOTION": 15.17308645, "ECCENTRICITY": 0.00010064, "INCLINATION": 97.4406, "RA_OF_ASC_NODE": 69.7093, "ARG_OF_PERICENTER": 249.5865, "MEAN_ANOMALY": 110.526, "EPHEMERIS_TYPE": 0, "CLASSIFICATION_TYPE": "U", "NORAD_CAT_ID": 66762, "ELEMENT_SET_NO": 999, "REV_AT_EPOCH": 385, "BSTAR": 0.00029827884, "MEAN_MOTION_DOT": 5.88e-05, "MEAN_MOTION_DDOT": 0}, "tle": {"line1": "1 66762U 25276DA  25358.14826149  .00005880  00000+0  29828-3 0  9999", "line2": "2 66762  97.4406  69.7093 0001006 249.5865 110.5260 15.17308645  3850"}}, "geometry": {"type": "Point", "coordinates": [-105.42532379289996, 29.960266268800822]}}, {"type": "Feature", "properties": {"norad_id": 66763, "name": "HYDROGNSS-2", "group": "last-30-days", "lat": 18.20661759411692, "lon": -107.27235389771711, "alt_km": 513.7778278049627, "timestamp": "2025-12-24T16:52:40.178815+00:00", "meta": {"OBJECT_NAME": "HYDROGNSS-2", "OBJECT_ID": "2025-276DB", "EPOCH": "2025-12-22T10:21:31.448736", "MEAN_MOTION": 15.17420203, "ECCENTRICITY": 0.00013861, "INCLINATION": 97.4416, "RA_OF_ASC_NODE": 68.032, "ARG_OF_PERICENTER": 244.5475, "MEAN_ANOMALY": 115.5615, "EPHEMERIS_TYPE": 0, "CLASSIFICATION_TYPE": "U", "NORAD_CAT_ID": 66763, "ELEMENT_SET_NO": 999, "REV_AT_EPOCH": 359, "BSTAR": 0.00019983047, "MEAN_MOTION_DOT": 3.929e-05, "MEAN_MOTION_DDOT": 0}, "tle": {"line1": "1 66763U 25276DB  25356.43161399  .00003929  00000+0  19983-3 0  9992", "line2": "2 66763  97.4416  68.0320 0001386 244.5475 115.5615 15.17420203  3595"}}, "geometry": {"type": "Point", "coordinates": [-107.27235389771711, 18.20661759411692]}}, {"type": "Feature", "properties": {"norad_id": 66764, "name": "TRANSPORTER-15DC", "group": "last-30-days", "lat": -7.263800732640698, "lon": -110.68603125696274, "alt_km": 515.261164629017, "timestamp": "2025-12-24T16:52:40.178826+00:00", "meta": {"OBJECT_NAME": "TRANSPORTER-15DC", "OBJECT_ID": "2025-276DC", "EPOCH": "2025-12-24T06:33:41.353056", "MEAN_MOTION": 15.17703692, "ECCENTRICITY": 0.00021433, "INCLINATION": 97.4404, "RA_OF_ASC_NODE": 69.846, "ARG_OF_PERICENTER": 188.8925, "MEAN_ANOMALY": 171.2272, "EPHEMERIS_TYPE": 0, "CLASSIFICATION_TYPE": "U", "NORAD_CAT_ID": 66764, "ELEMENT_SET_NO": 999, "REV_AT_EPOCH": 387, "BSTAR": 0.00047100156, "MEAN_MOTION_DOT": 9.434e-05, "MEAN_MOTION_DDOT": 0}, "tle": {"line1": "1 66764U 25276DC  25358.27339529  .00009434  00000+0  47100-3 0  9998", "line2": "2 66764  97.4404  69.8460 0002143 188.8925 171.2272 15.17703692  3874"}}, "geometry": {"type": "Point", "coordinates": [-110.68603125696274, -7.263800732640698]}}, {"type": "Feature", "properties": {"norad_id": 66765, "name": "TRANSPORTER-15DD", "group": "last-30-days", "lat": -80.28058966937688, "lon": -159.43597315036988, "alt_km": 518.079542095963, "timestamp": "2025-12-24T16:52:40.178838+00:00", "meta": {"OBJECT_NAME": "TRANSPORTER-15DD", "OBJECT_ID": "2025-276DD", "EPOCH": "2025-12-24T06:13:57.946080", "MEAN_MOTION": 15.1876466, "ECCENTRICITY": 0.00020037, "INCLINATION": 97.442, "RA_OF_ASC_NODE": 69.8701, "ARG_OF_PERICENTER": 116.4424, "MEAN_ANOMALY": 243.7016, "EPHEMERIS_TYPE": 0, "CLASSIFICATION_TYPE": "U", "NORAD_CAT_ID": 66765, "ELEMENT_SET_NO": 999, "REV_AT_EPOCH": 387, "BSTAR": 0.00068841211, "MEAN_MOTION_DOT": 0.00014257, "MEAN_MOTION_DDOT": 0}, "tle": {"line1": "1 66765U 25276DD  25358.25969845  .00014257  00000+0  68841-3 0  9991", "line2": "2 66765  97.4420  69.8701 0002003 116.4424 243.7016 15.18764660  3871"}}, "geometry": {"type": "Point", "coordinates": [-159.43597315036988, -80.28058966937688]}}, {"type": "Feature", "properties": {"norad_id": 66766, "name": "TRANSPORTER-15DE", "group": "last-30-days", "lat": -65.5242481489085, "lon": -126.39296296517459, "alt_km": 519.1457618251015, "timestamp": "2025-12-24T16:52:40.178849+00:00", "meta": {"OBJECT_NAME": "TRANSPORTER-15DE", "OBJECT_ID": "2025-276DE", "EPOCH": "2025-12-24T06:18:20.850048", "MEAN_MOTION": 15.18431001, "ECCENTRICITY": 0.00020428, "INCLINATION": 97.4361, "RA_OF_ASC_NODE": 69.8474, "ARG_OF_PERICENTER": 86.4008, "MEAN_ANOMALY": 273.746, "EPHEMERIS_TYPE": 0, "CLASSIFICATION_TYPE": "U", "NORAD_CAT_ID": 66766, "ELEMENT_SET_NO": 999, "REV_AT_EPOCH": 387, "BSTAR": 0.00051694935, "MEAN_MOTION_DOT": 0.00010582, "MEAN_MOTION_DDOT": 0}, "tle": {"line1": "1 66766U 25276DE  25358.26274132  .00010582  00000+0  51695-3 0  9997", "line2": "2 66766  97.4361  69.8474 0002042  86.4008 273.7460 15.18431001  3876"}}, "geometry": {"type": "Point", "coordinates": [-126.39296296517459, -65.5242481489085]}}]}